,name,address,extAddress,locality,postalCode,country,openingDays,openingHours
0,Vigeland Museum,Nobels gate 32,['Frogner Park'],Oslo,['0268'],['Norway'],['\nTue - Sun\n'],['12:00 pm - 4:00 pm']
1,The Norwegian National Opera & Ballet,Kirsten Flagstads Pl. 1,[],Oslo,['0150'],['Norway'],"['\nSun\n', '\nMon - Fri\n', '\nSat\n']","['12:00 pm - 6:00 pm', '10:00 am - 8:00 pm', '11:00 am - 6:00 pm']"
2,Fram Polar Ship Museum,Bygdoeynesveien 39,[],Oslo,['0286'],['Norway'],['\nSun - Sat\n'],['10:00 am - 6:00 pm']
3,Vigelandsparken,Nobels gate 32,[],Oslo,['0268'],['Norway'],[],[]
4,The Norwegian Museum of Cultural History,Museumsveien 10,[],Oslo,['0287'],['Norway'],"['\nMon - Fri\n', '\nSat - Sun\n']","['11:00 am - 3:00 pm', '11:00 am - 4:00 pm']"
5,Bygdoy Peninsula,"Bygdoy, Oslo",[],Oslo,['0286'],['Norway'],[],[]
6,Holmenkollen Ski Museum and Ski Jump Tower,Kongeveien 5,[],Oslo,['0787'],['Norway'],['\nSun - Sat\n'],['10:00 am - 4:00 pm']
7,National Museum - National Gallery,Universitetsgaten 13 (city centre),[],Oslo,[],['Norway'],"['\nTue - Wed\n', '\nThu\n', '\nFri\n', '\nSat - Sun\n']","['10:00 am - 6:00 pm', '10:00 am - 7:00 pm', '10:00 am - 6:00 pm', '11:00 am - 5:00 pm']"
8,The Viking Ship Museum,Huk Aveny 35,[],Oslo,['0287'],['Norway'],['\nSun - Sat\n'],['9:00 am - 6:00 pm']
9,Oslo Fjord,,[],Oslo,[],['Norway'],[],[]
10,Kon-Tiki Museum,Bygdoeynesveien 36,[],Oslo,['0286'],['Norway'],['\nSun - Sat\n'],['9:30 am - 6:00 pm']
11,Frogner Park,Kirkeveien,[],Oslo,['0268'],['Norway'],[],[]
12,Aker Brygge,Bydel Aker Brygge Grundingen 6,[],Oslo,['0250'],['Norway'],[],[]
13,Sognsvann Lake,Sognsveien 235,[],Oslo,['0863'],['Norway'],[],[]
14,Norwegian Museum of Technology,Kjelsaasveien 143,[],Oslo,['0491'],['Norway'],"['\nTue - Fri\n', '\nSat - Sun\n']","['9:00 am - 4:00 pm', '11:00 am - 6:00 pm']"
15,Norway's Resistance Museum (Norges Hjemmefront Museum),Bygning 21,['Festning'],Oslo,['0015'],['Norway'],"['\nMon - Fri\n', '\nSat - Sun\n']","['10:00 am - 4:00 pm', '11:00 am - 4:00 pm']"
16,Oslo City Hall (Oslo Radhus),Fridtjof Nansens plass,[],Oslo,['0037'],['Norway'],['\nSun - Sat\n'],['9:00 am - 4:00 pm']
17,Botanical Gardens (Botanisk Hage og Museum),Sars Gate 1,[],Oslo,[],['Norway'],[],[]
18,Oslo Visitor Centre,Jernbanetorget 1,['Inside Ostbanehallen'],Oslo,['0154'],['Norway'],['\nSun - Sat\n'],['9:00 am - 6:00 pm']
19,Akershus Castle and Fortress (Akershus Slott og Festning),Fesningsplassen,[],Oslo,[],['Norway'],[],[]
20,Ekebergparken,Kongsveien 23,['0193'],Oslo,['0193'],['Norway'],[],[]
21,Nordmarka,Nordmarka,[],Oslo,['890'],['Norway'],[],[]
22,Karl Johans gate,Karl Johans Gate,[],Oslo,[],['Norway'],[],[]
23,The Nobel Peace Center,Brynjulf Bulls Plass 1,['City Hall Square'],Oslo,['0250'],['Norway'],['\nTue - Sun\n'],['10:00 am - 6:00 pm']
24,The Royal Palace,Slottsplassen 1,[],Oslo,['0010'],['Norway'],[],[]
25,Oslomarka,Oslo ost,['Frognerseteren'],Oslo,['687'],['Norway'],[],[]
26,Astrup Fearnley Museet,Strandpromenaden 2,[],Oslo,['0252'],['Norway'],"['\nTue - Wed\n', '\nThu\n', '\nFri\n', '\nSat - Sun\n']","['12:00 pm - 5:00 pm', '12:00 pm - 7:00 pm', '12:00 pm - 5:00 pm', '11:00 am - 5:00 pm']"
27,Oestbanehallen,Jernbanetorget 1,[],Oslo,['0154'],['Norway'],[],[]
28,Hovedoya,Hovedoya,[],Oslo,['102'],['Norway'],[],[]
29,Sporveien T-Banen,,[],Oslo,[],['Norway'],['\nMon - Fri\n'],['8:00 am - 4:00 pm']
30,The Norwegian Parliament,Karl Johans gate 22,[],Oslo,['0026'],['Norway'],[],[]
31,Oscarsborg Fortress,Drobaksundet,[],Oslo,['1443'],['Norway'],[],[]
32,,,[],,[],[],[],[]
33,Drobak,Drobak,[],Oslo,[],['Norway'],[],[]
34,Korketrekkeren,Frognerseteren,[],Oslo,['2004'],['Norway'],[],[]
35,Munch Museum,Toeyengata 53,[],Oslo,['0578'],['Norway'],['\nSun - Sat\n'],['10:00 am - 5:00 pm']
36,Akerselva River,Maridalsvannet - Oslo,[],Oslo,[],['Norway'],[],[]
37,Oslo Cathedral (Oslo Domkirke),Stortorvet 1,[],Oslo,['0155'],['Norway'],['\nSun - Sat\n'],['10:00 am - 4:00 pm']
38,Grunerlokka,,[],Oslo,[],['Norway'],[],[]
39,,,[],,[],[],[],[]
40,,,[],,[],[],[],[]
41,Armed Forces Museum,Oslo mil/Akershus Festning,[],Oslo,['0015'],['Norway'],"['\nMon - Fri\n', '\nSat - Sun\n']","['11:00 am - 4:00 pm', '11:00 am - 5:00 pm']"
42,The Palace Park,Slottsplassen 1,[],Oslo,['0010'],['Norway'],[],[]
43,,,[],,[],[],[],[]
44,Tjuvholmen Sculpture Park,Tjuvholmen,[],Oslo,['252'],['Norway'],['\nSun - Sat\n'],['12:00 am - 11:59 pm']
45,The Ibsen Museum,Henrik Ibsens gate 26,[],Oslo,['0255'],['Norway'],"['\nThu\n', '\nFri - Wed\n']","['11:00 am - 6:00 pm', '11:00 am - 4:00 pm']"
46,Oslo City Hall Gallery,Raadhusplassen 1,[],Oslo,['0037'],['Norway'],[],[]
47,Tiger Sculpture,Jernbanetorget 1,[],Oslo,['0154'],['Norway'],[],[]
48,National Theater (Nationaltheatret),Stortingsgt. 15,[],Oslo,[],['Norway'],[],[]
49,The Historical Museum,Frederiks gate 2,['The Museum of Cultural History'],Oslo,['0164'],['Norway'],['\nTue - Sun\n'],['11:00 am - 4:00 pm']
50,,,[],,[],[],[],[]
51,Norsk Maritimt Museum,Bygdoeynesveien 37,[],Oslo,['0286'],['Norway'],[],[]
52,,,[],,[],[],[],[]
53,Oslo's Harbour Promenade,Raadhusplassen 1,[],Oslo,['0037'],['Norway'],[],[]
54,HIMKOK Storgata Destilleri,Storgata 27,[],Oslo,['0184'],['Norway'],[],[]
55,National Museum - Museum of Decorative Arts and Design,St. Olavs gate 1,[],Oslo,['0165'],['Norway'],"['\nTue - Wed\n', '\nThu\n', '\nFri\n', '\nSat - Sun\n']","['11:00 am - 5:00 pm', '11:00 am - 7:00 pm', '11:00 am - 5:00 pm', '12:00 pm - 4:00 pm']"
56,IceBar Oslo,Kristian IV_s gate 12,[],Oslo,['0164'],['Norway'],"['\nSun - Thu\n', '\nFri - Sat\n']","['11:00 am - 11:00 pm', '11:00 am - 12:00 am']"
57,Henie-Onstad Art Center,Hovikodden,['Sonja Henies vei 31'],Oslo,['1311'],['Norway'],"['\nTue - Thu\n', '\nFri - Sun\n']","['11:00 am - 7:00 pm', '11:00 am - 5:00 pm']"
58,Emanuel Vigeland Museum,Grimelundsveien 8,[],Oslo,[],['Norway'],['\nSun\n'],['12:00 pm - 4:00 pm']
59,,,[],,[],[],[],[]
60,Damstredet & Telthusbakken,Fredensborgveien / Akersveien,[],Oslo,['0177'],['Norway'],[],[]
61,,,[],,[],[],[],[]
62,Oslo Spektrum,Sonja Henies Plass 2,[],Oslo,['0185'],['Norway'],[],[]
63,Natural History Museum,Sars Gate 1,"['Zoological, Mineral and Geological Museum']",Oslo,[],['Norway'],['\nTue - Sun\n'],['11:00 am - 4:00 pm']
64,Oslo Reptile Park,St. Olavs gate 2,[],Oslo,['165'],['Norway'],['\nSun - Sat\n'],['10:00 am - 6:00 pm']
65,22 July Centre,Akersgata 42,[],Oslo,['0180'],['Norway'],[],[]
66,,,[],,[],[],[],[]
67,Oslo City Shoppingcenter,Stenersgata 1,[],Oslo,['0050'],['Norway'],[],[]
68,Huk Paradisbukta Beach,Bygdoy,[],Oslo,['102'],['Norway'],[],[]
69,Tjuvholmen Neighbourhood,Tjuvholmen,[],Oslo,['0252'],['Norway'],[],[]
70,The Holocaust Center,Villa Grande Huk Aveny 56,"['Ta 30-bussen til ""Bygdøhus""']",Oslo,['0287'],['Norway'],"['\nMon - Fri\n', '\nSat - Sun\n']","['10:00 am - 5:00 pm', '11:00 am - 5:00 pm']"
71,Baerums Verk,Verksgt. 15,[],Oslo,['2004'],['Norway'],[],[]
72,Soerenga Public Pool,Soerengkaia,['Soerenga'],Oslo,['0194'],['Norway'],[],[]
73,,,[],,[],[],[],[]
74,,,[],,[],[],[],[]
75,City Museum (Oslo Bymuseum),Frognerveien 67,[],Oslo,['0266'],['Norway'],['\nTue - Sun\n'],['11:00 am - 4:00 pm']
76,She Lies,Kirsten Flagstads Pl. 1,[],Oslo,['0150'],['Norway'],[],[]
77,Popsenteret,Schous kulturbryggeri,"['Trondheimsveien 2, bygg T']",Oslo,['0560'],['Norway'],[],[]
78,Barcode Oslo,Dronning Eufemias Gate,[],Oslo,['0191'],['Norway'],[],[]
79,Old Aker Church,Akersbakken 26,[],Oslo,[],['Norway'],[],[]
80,Oslo Transport Museum,Gardeveien 15,[],Oslo,['0363'],['Norway'],[],[]
81,Peer Gynt Sculpture Park,Peter Mollers vei / Lorenvangen,[],Oslo,['512'],['Norway'],[],[]
82,Frognerparken,,[],Oslo,[],['Norway'],[],[]
83,,,[],,[],[],[],[]
84,The Mini Bottle Gallery,Kirkegata 10,[],Oslo,['0153'],['Norway'],[],[]
85,National Museum - Museum of Contemporary Art,Bankplassen 4,[],Oslo,['0151'],['Norway'],"['\nTue - Wed\n', '\nThu\n', '\nFri\n', '\nSat - Sun\n']","['11:00 am - 5:00 pm', '11:00 am - 7:00 pm', '11:00 am - 5:00 pm', '12:00 pm - 5:00 pm']"
86,Changing of the Guard at the Royal Palace,Henrik Ibsens gate 1,[],Oslo,['0010'],['Norway'],[],[]
87,Vulkan Neighbourhood,Vulkan,['Fom Maridalsveien to Moellerveien at Gruenerloekka'],Oslo,['0175'],['Norway'],[],[]
88,Bogstad Gard,Sorkedalsvn 826,[],Oslo,[],['Norway'],['\nTue - Sun\n'],['12:00 pm - 4:00 pm']
89,Oslo Konserthus,Munkedamsveien 14,[],Oslo,['0250'],['Norway'],[],[]
90,Oscarshall,Oscarshallveien 805,[],Oslo,['287'],['Norway'],[],[]
91,Ostensjovannet Lake,Ostensjo,[],Oslo,['690'],['Norway'],[],[]
92,St. Hanshaugen,Ullevalsveien,['Geitmyrsveien'],Oslo,['171'],['Norway'],[],[]
93,Waterfall at Molla,Grunerlokka,['Sor av Treschows gate /bru'],Oslo,['0150'],['Norway'],[],[]
94,National Library (Nasjonalbiblioteket),Henrik Ibsens gate 110,[],Oslo,['0255'],['Norway'],"['\nMon - Fri\n', '\nSat\n']","['9:00 am - 7:00 pm', '9:00 am - 2:00 pm']"
95,The Norwegian Theater (Det Norske Teatret),Kristian Iv's gate 8,[],Oslo,['0164'],['Norway'],[],[]
96,Oslo Jewish Museum,Calmeyers gate 15B,[],Oslo,['0183'],['Norway'],"['\nSun\n', '\nTue\n', '\nThu\n']","['11:00 am - 4:00 pm', '10:00 am - 3:00 pm', '2:00 pm - 7:00 pm']"
97,Holmenkollen Chapel,Holmenkollveien 142,[],Oslo,['0791'],['Norway'],[],[]
98,,,[],,[],[],[],[]
99,Stortorvet,Stortorget 1,[],Oslo,['2004'],['Norway'],[],[]
100,National Museum - Architecture,Bankplassen 3,[],Oslo,['0151'],['Norway'],"['\nTue - Wed\n', '\nThu\n', '\nFri\n', '\nSat - Sun\n']","['10:00 am - 6:00 pm', '10:00 am - 7:00 pm', '10:00 am - 6:00 pm', '11:00 am - 5:00 pm']"
101,Litteraturhuset - The House of Literature,Wergelandsveien 29,[],Oslo,['0167'],['Norway'],[],[]
102,,,[],,[],[],[],[]
103,,,[],,[],[],[],[]
104,Our Saviour's Memorial Cemetery,Akersbakken 32,[],Oslo,['0172'],['Norway'],[],[]
105,,,[],,[],[],[],[]
106,Statue of Franklin D. Roosevelt,Raadhusplassen 1,[],Oslo,['0037'],['Norway'],[],[]
107,,,[],,[],[],[],[]
108,Medieval Ruin Park,Middelalderparken 0150,[],Oslo,['192'],['Norway'],[],[]
109,EKT Rideskole og Husdyrpark,Ekebergveien 99,[],Oslo,['1181'],['Norway'],['\nSun - Sat\n'],['10:00 am - 5:00 pm']
110,,,[],,[],[],[],[]
111,Birkelunden,Grunerlokka,[],Oslo,['555'],['Norway'],[],[]
112,Oslo-Fergene,Raadhusbrygge 4 1,[],Oslo,['0160'],['Norway'],[],[]
113,Vestre Gravlund,Soerkedalsveien 66,[],Oslo,['0369'],['Norway'],[],[]
114,Film Museum,Dronningens gate 16,[],Oslo,['0152'],['Norway'],[],[]
115,,,[],,[],[],[],[]
116,International Children's Art Museum,Lille Froeens vei 4,[],Oslo,['0371'],['Norway'],[],[]
117,The Sneak Peak,Tjuvholmen Alle,['Albert Nordengens plass'],Oslo,['0252'],['Norway'],['\nSat - Sun\n'],['12:00 pm - 6:00 pm']
118,,,[],,[],[],[],[]
119,Stenersen Museum,Munkedamsveien 15,[],Oslo,['0250'],['Norway'],"['\nTue - Wed\n', '\nThu\n', '\nFri\n', '\nSat - Sun\n']","['11:00 am - 4:00 pm', '11:00 am - 7:00 pm', '11:00 am - 4:00 pm', '11:00 am - 5:00 pm']"
120,Lindoeya Island,Oslo Fjord,[],Oslo,[],['Norway'],[],[]
121,The Vantage Point Ekeberg,Oslo - Ekeberg,['Brannfjellvein'],Oslo,['0193'],['Norway'],[],[]
122,,,[],,[],[],[],[]
123,Norwegian Centre for Design and Architecture,Hausmanns gate 16,[],Oslo,['0182'],['Norway'],"['\nWed - Thu\n', '\nFri - Tue\n']","['10:00 am - 8:00 pm', '10:00 am - 5:00 pm']"
124,Langoeyene Island,Oslo Fjord,[],Oslo,['102'],['Norway'],[],[]
125,Vestkant Torget Antique Market,Vestkanttorvet,[],Oslo,[],['Norway'],[],[]
126,Street Art at Ingens gate,Ingens gate,[],Oslo,[],['Norway'],[],[]
127,Svartdalsparken,Ekeberg,[],Oslo,['0657'],['Norway'],[],[]
128,Norwegian Customs Museum,Tollbugata 1A,[],Oslo,['0152'],['Norway'],[],[]
129,Sagene Church,Kirketorget,[],Oslo,['0463'],['Norway'],[],[]
130,Nordre Lindeberg Farm,Stroemsveien 350,[],Oslo,['1081'],['Norway'],[],[]
131,,,[],,[],[],[],[]
132,Kragstotten Sculpture & Viewpoint,Holmenkollen,[],Oslo,['787'],['Norway'],[],[]
133,Akerselva Miljopark,Akerselva,[],Oslo,['0134'],['Norway'],[],[]
134,,,[],,[],[],[],[]
135,,,[],,[],[],[],[]
136,Norwegian Nobel Institute,Drammensveien 19,[],Oslo,['0255'],['Norway'],[],[]
137,GlasMagasinet,Stortorvet,['9'],Oslo,['0155'],['Norway'],[],[]
138,Bogstadvannet Lake,Sorkedalen,[],Oslo,['102'],['Norway'],[],[]
139,,,[],,[],[],[],[]
140,Freia Sjokoladefabrikk,Johan Throne Holsts Pl 1,[],Oslo,['0566'],['Norway'],[],[]
141,,,[],,[],[],[],[]
142,Kulturkirken Jakob,Hausmanns gate 14,[],Oslo,['0182'],['Norway'],[],[]
143,Ingierstrand Beach,Oslo Syd,[],Oslo,['1083'],['Norway'],[],[]
144,The Troll Sculpture Kollentrollet,Gratishaugen,[],Oslo,['787'],['Norway'],[],[]
145,"Rock Carvings, Ekeberg",Sjomannskolen (Maritime High School),[],Oslo,['250'],['Norway'],[],[]
146,,,[],,[],[],[],[]
147,,,[],,[],[],[],[]
148,Gressholmen Island,Oslofjorden,[],Oslo,['102'],['Norway'],[],[]
149,Ullevaal Stadion,Sognsveien 75 A,[],Oslo,['0855'],['Norway'],[],[]
150,St. Olav's Catholic Chuch,Akersveien 1,[],Oslo,['0177'],['Norway'],[],[]
151,Valle Hovin Ice-Skating Rink,Innspurten 1,[],Oslo,['663'],['Norway'],[],[]
152,Ski & Guide,Tryvannsveien 61,[],Oslo,['0791'],['Norway'],[],[]
153,Sofienberg Park,Helgesens gate / Sofienberggata,[],Oslo,['552'],['Norway'],[],[]
154,Oslo Nye Teater,Rosenkrantz' gate 10,[],Oslo,['0159'],['Norway'],[],[]
155,Basarhallene,Kirkeristen,[],Oslo,['151'],['Norway'],[],[]
156,The Beer Academy,Thorvald Meyers gate 71,['Entrance Nordre Gate'],Oslo,['0552'],['Norway'],['\nMon - Fri\n'],['10:00 am - 4:00 pm']
157,Ovresetertjern Lake,Voksenkollen/Tryvann,[],Oslo,['791'],['Norway'],[],[]
158,Kunstnernes Hus,Wergelandsveien 17,[],Oslo,['0167'],['Norway'],['\nTue - Sun\n'],['11:00 am - 6:00 pm']
159,Rush Norway Trampoline park,Rosenholmveien 22,[],Oslo,['1252'],['Norway'],[],[]
160,,,[],,[],[],[],[]
161,Toyenbadet Public Bath,Helgesens gate 90,[],Oslo,['0563'],['Norway'],"['\nMon\n', '\nTue\n', '\nWed\n', '\nThu\n', '\nFri\n', '\nSat - Sun\n']","['7:00 am - 7:00 pm', '10:30 am - 7:00 pm', '7:00 am - 7:00 pm', '10:30 am - 7:00 pm', '7:00 am - 7:00 pm', '9:00 am - 3:00 pm']"
162,Spikersuppa Ice-Skating Rink,"Spikersuppa, Karl Johan",[],Oslo,['0162'],['Norway'],[],[]
163,Chat Noir,Klingenberggata 5,[],Oslo,['0161'],['Norway'],[],[]
164,Studenterlunden Park,Johanne Dybwards Plass,[],Oslo,['0161'],['Norway'],[],[]
165,Villa Stenersen,"Tuengen alle 10 C, Vinderen",[],Oslo,['374'],['Norway'],[],[]
166,Steen & Strom Department Store,Nedre Slottsgate 8,[],Oslo,['0153'],['Norway'],[],[]
167,Gronland Church,Groenlandsleiret 34,[],Oslo,['0190'],['Norway'],[],[]
168,St. Hallvard Church,Enerhauggata 4,[],Oslo,['0651'],['Norway'],[],[]
169,Central Jam-e-Mosque at Gronland,Aakebergveien 28 B,[],Oslo,['0650'],['Norway'],[],[]
170,Alnaelva,Alna,[],Oslo,[],['Norway'],[],[]
171,Uranienborg Church,Uranienborgveien 22 B,[],Oslo,['0258'],['Norway'],[],[]
172,Albin Upp Gallery & Art Cafe,Briskebyveien 42,[],Oslo,['259'],['Norway'],[],[]
173,Pushwagner Gallery,Tjuvholmen Alle 10,[],Oslo,['0252'],['Norway'],[],[]
174,Frogner Church,Bygdoey alle 36,[],Oslo,['0265'],['Norway'],[],[]
175,Christian Radich,Skur 32 / Akershusstranda,[],Oslo,['150'],['Norway'],['\nMon - Fri\n'],['8:00 am - 4:00 pm']
176,Oslo Fire Museum,Groenlandsleiret 32,[],Oslo,['0190'],['Norway'],"['\nTue\n', '\nWed\n']","['6:00 pm - 8:00 pm', '11:00 am - 2:00 pm']"
177,Oslo Stock Exchange,,[],Oslo,[],['Norway'],[],[]
178,Football Museum,Sognsveien 75 J,[],Oslo,['0855'],['Norway'],[],[]
179,Aamot Bridge,Grunerlokka,['Rett ved Foss videregående skole'],Oslo,['0151'],['Norway'],[],[]
180,Holmlia Church,Ravnaasveien 28,[],Oslo,['1254'],['Norway'],[],[]
181,Leonardo Bridge,,[],Oslo,[],['Norway'],[],[]
182,,,[],,[],[],[],[]
183,Oslo Ladegard,St. Hallvards plass,[],Oslo,['2004'],['Norway'],[],[]
184,Paulus Church,Thorvald Meyers Gate 31,[],Oslo,['555'],['Norway'],[],[]
185,,,[],,[],[],[],[]
186,Mortensrud Church,Helga Vaneks vei 15,[],Oslo,['1281'],['Norway'],[],[]
187,Dyna Lighthouse,0286 Oslo,[],Oslo,['110'],['Norway'],[],[]
188,The Trinity Church,Akersgata 60,[],Oslo,['0180'],['Norway'],[],[]
189,,,[],,[],[],[],[]
190,Baitun Nasr - Furuset Mosque,Soeren Bulls vei 1,[],Oslo,['1051'],['Norway'],[],[]
191,Jordal Amfi Oslo,Jordalgata 12,[],Oslo,['0657'],['Norway'],[],[]
192,Skiforeningen,VM-huset Kongeveien 5,[],Oslo,['0787'],['Norway'],[],[]
193,Kampen Organic Children's Farm,Skedsmogata 23,[],Oslo,['0655'],['Norway'],[],[]
194,Majorstuen Church,Kirkeveien 84,[],Oslo,['0364'],['Norway'],[],[]
195,Linderud Manor,Trondheimsveien 319,[],Oslo,['0593'],['Norway'],[],[]
196,Vulkan Climbing Centre,Maridalsveien 17,[],Oslo,['0178'],['Norway'],[],[]
197,Ostre Aker Church,Ulvenveien 110,[],Oslo,['0665'],['Norway'],[],[]
198,Tryvann's Tower (Tryvannstarnet),Voksenkollen,[],Oslo,[],['Norway'],[],[]
199,Lambertseter Public Pool,Langbolgen 24,[],Oslo,['1155'],['Norway'],[],[]
200,,,[],,[],[],[],[]
201,,,[],,[],[],[],[]
202,Bjerke Race Track,Trondheimsveien 271-273,[],Oslo,['589'],['Norway'],[],[]
203,,,[],,[],[],[],[]
204,Glasmagasinet Stortorvet,Stortorvet 9,[],Oslo,['0155'],['Norway'],[],[]
205,Rommensletta Skulpturpark,Haugenstua,[],Oslo,[],['Norway'],[],[]
206,Nakholmen Island,Oslo Fjord,[],Oslo,[],['Norway'],[],[]
207,The River Ride Jungletour,Oslo Vest,[],Oslo,['160'],['Norway'],[],[]
208,Akrobaten Pedestrian Bridge,Dronning Eufemias Gate,[],Oslo,['191'],['Norway'],[],[]
209,Ekeberg 18 Hole Frisby Golf Course,Brannfjelveien,[],Oslo,[],['Norway'],[],[]
210,Christian IV Monument,Oslo sentrum,[],Oslo,['0301'],['Norway'],[],[]
211,Norwegian Scout Museum,Storgata 3,[],Oslo,['0155'],['Norway'],[],[]
212,Galleri Fineart,Filipstad Brygge 2,[],Oslo,['0252'],['Norway'],"['\nMon - Wed\n', '\nThu\n', '\nFri\n', '\nSat\n']","['10:00 am - 6:00 pm', '10:00 am - 8:00 pm', '10:00 am - 6:00 pm', '10:00 am - 4:00 pm']"
213,Lutvann,Lutvann,['Haugerudveien'],Oslo,[],['Norway'],[],[]
214,"NRK, Marienlyst",Marienlyst,[],Oslo,['0340'],['Norway'],['\nSun - Sat\n'],['1:00 pm - 3:00 pm']
215,Molleren Sylvia,Hegdehaugsveien 12,[],Oslo,['0167'],['Norway'],[],[]
216,Bleikoeya Island,Oslo,[],Oslo,[],['Norway'],[],[]
217,Dansens Hus,Moellerveien 2,[],Oslo,['0182'],['Norway'],[],[]
218,Sorbraten Farm,Maridalen Maridalsveien 551,[],Oslo,['0890'],['Norway'],"['\nMon - Fri\n', '\nTue - Sat\n']","['9:00 pm - 12:00 am', '12:00 am - 4:00 pm']"
219,Fagerborg Church,Pilestredet 72,[],Oslo,['354'],['Norway'],[],[]
220,Expo Arte Jewellery Design & Gallery,Henrik Ibsens gate 100,[],Oslo,['0255'],['Norway'],[],[]
221,Ulvoya Island,Oslo syd,[],Oslo,['102'],['Norway'],[],[]
222,Oslo School Museum,Mollergata skole,['Mollergata 49'],Oslo,['179'],['Norway'],[],[]
223,Ovre Fossum gard,Fossumveien 81,[],Oslo,['0982'],['Norway'],"['\nMon - Fri\n', '\nSat - Sun\n']","['8:00 am - 10:00 pm', '8:00 am - 8:00 pm']"
224,Hauger Farm,Maridalsveien 539,[],Oslo,['0890'],['Norway'],[],[]
225,Gallery Format,Raadhusgata 24,[],Oslo,['0151'],['Norway'],[],[]
226,Elveli Farm,Sorkedalen,[],Oslo,['759'],['Norway'],[],[]
227,Ljan Church,Furumoen,[],Oslo,[],['Norway'],[],[]
228,Rikard Nordraak Monument,Wergelandsveien 1,['Nordraaks plass'],Oslo,['0167'],['Norway'],[],[]
229,Cartoon Library Serieteket,Schous Plass 10,[],Oslo,['0552'],['Norway'],[],[]
230,Alna Ridesenter,Alnaparkveien 13,[],Oslo,['1081'],['Norway'],['\nSun - Sat\n'],['8:00 am - 8:00 pm']
231,Ris Church,Risbakken 1,[],Oslo,['0374'],['Norway'],[],[]
232,,,[],,[],[],[],[]
233,The Labour Museum,Sagveien 28,[],Oslo,['0459'],['Norway'],['\nSat - Sun\n'],['11:00 am - 4:00 pm']
234,Oslo Nye Trikkestallen,Torshovgata 33,[],Oslo,['0476'],['Norway'],[],[]
235,Ostre Gravlund,Tvetenveien 7,[],Oslo,['0661'],['Norway'],[],[]
236,Hoeyesterett (Supreme Court),Hoeyesteretts Plass 1,[],Oslo,['0180'],['Norway'],[],[]
237,Ingierkollen Alpine Center,Kolbotnveien,[],Oslo,['1410'],['Norway'],[],[]
238,,,[],,[],[],[],[]
239,Valerenga Church,Hjaltlandsgata 3,[],Oslo,['0658'],['Norway'],[],[]
240,Klatreverket Climbing Centre,Sandakerveien 24 C,[],Oslo,['0473'],['Norway'],[],[]
241,Deichmanske Bibliotek,Arne Garborgs Plass 4,[],Oslo,['0179'],['Norway'],[],[]
242,,,[],,[],[],[],[]
243,Romsaas Public Pool,Romsaas Senter 1,[],Oslo,['0970'],['Norway'],[],[]
244,Nordtvet Public Bath,Gaardsveien 4,[],Oslo,['0952'],['Norway'],[],[]
245,,,[],,[],[],[],[]
246,,,[],,[],[],[],[]
247,,,[],,[],[],[],[]
248,CAK Center for African Culture,Pilestredet 75 C,[],Oslo,['0354'],['Norway'],[],[]
249,Voienvolden Manor,Maridalsveien 120,[],Oslo,['461'],['Norway'],[],[]
250,Visitors Centre,Forsvarsbygg,[],Oslo,['0103'],['Norway'],[],[]
251,Russian Orthodox Church,Akersveien 33,[],Oslo,['0177'],['Norway'],[],[]
252,Nho Visitor's Centre,Middelthuns gate 27,[],Oslo,['0368'],['Norway'],[],[]
253,Gallery Voksenaasen,Ullveien 4,[],Oslo,['0791'],['Norway'],[],[]
254,Milestone Jerusalem: Oslo,Akersbakken 30,['St.Hanshaugen'],Oslo,['0172'],['Norway'],[],[]
255,Blomqvist Auction House Gallery,Tordenskiolds gate 5,[],Oslo,['0160'],['Norway'],['\nMon - Fri\n'],['10:00 am - 5:00 pm']
256,Nordre Skoyen Manor,"Skoyenbakken, Bryn",[],Oslo,['667'],['Norway'],[],[]
257,Kampen Church,Boegata 1,[],Oslo,['0655'],['Norway'],[],[]
258,Boler Church,Boelerlia 3B,[],Oslo,['0691'],['Norway'],"['\nSun\n', '\nMon - Fri\n']","['11:00 am - 12:00 pm', '10:00 am - 2:00 pm']"
259,Oslo Kunstforening,Raadhusgata 19,[],Oslo,['0158'],['Norway'],[],[]
260,Sondre Aas Farm,Rosenholmveien 11,[],Oslo,['1252'],['Norway'],"['\nMon - Fri\n', '\nSat - Sun\n']","['8:00 am - 8:00 pm', '8:00 am - 4:00 pm']"
261,Utopia Retro Modern,Kirkeveien 72,[],Oslo,['0364'],['Norway'],[],[]
262,Nordtvet Farm,Gardsveien 1-3,[],Oslo,['0952'],['Norway'],[],[]
263,Kunstnerforbundet,Kjeld Stubs gate 3,[],Oslo,['0160'],['Norway'],[],[]
264,Lillomarka Wilderness Area,Lillomarka,[],Oslo,['957'],['Norway'],[],[]
265,Galleri Kampen,Norderhovgata 30,[],Oslo,['0654'],['Norway'],[],[]
266,,,[],,[],[],[],[]
267,Intercultural Museum,Toeyenbekken 5,[],Oslo,['0188'],['Norway'],['\nTue - Sun\n'],['11:00 am - 4:00 pm']
268,,,[],,[],[],[],[]
269,,,[],,[],[],[],[]
270,,,[],,[],[],[],[]
271,,,[],,[],[],[],[]
272,Frogner Stadion,Middelthuns gate 26,[],Oslo,['0368'],['Norway'],[],[]
273,Ruins of Clemenskirken,Sorenga,[],Oslo,['192'],['Norway'],[],[]
274,Sinsen Church,Loerenveien 13,[],Oslo,['0585'],['Norway'],[],[]
275,Jettegryten,Bjerringbakken 7,[],Oslo,['1177'],['Norway'],[],[]
276,Lambertseter Church,Langboelgen 33,[],Oslo,['1150'],['Norway'],[],[]
277,Vestre Aker Church,Ullevaalsveien 117 B,[],Oslo,['0359'],['Norway'],[],[]
278,Ice Skating Museum (Skoytemuseet),Middelthunsgate 26,[],Oslo,[],['Norway'],"['\nSun\n', '\nTue\n', '\nThu\n']","['10:00 am - 2:00 pm', '10:00 am - 2:00 pm', '10:00 am - 2:00 pm']"
279,,,[],,[],[],[],[]
280,,,[],,[],[],[],[]
281,,,[],,[],[],[],[]
282,,,[],,[],[],[],[]
283,,,[],,[],[],[],[]
284,,,[],,[],[],[],[]
285,,,[],,[],[],[],[]
286,,,[],,[],[],[],[]
287,,,[],,[],[],[],[]
288,Oslo Theater Museum,Frognerveien 67,[],Oslo,['0266'],['Norway'],['\nTue - Sun\n'],['11:00 am - 4:00 pm']
289,Norwegian Museum of Magic,"Munkedamsveien 65 B, 3 etg.",[],Oslo,['270'],['Norway'],[],[]
290,Valkyrien Kaffe og Tehus,Jacob Aalls gate 17 B,[],Oslo,['0364'],['Norway'],"['\nMon - Fri\n', '\nSat\n']","['8:30 am - 5:00 pm', '10:00 am - 4:00 pm']"
291,Sofienberg Church,Rathkes gate 18,[],Oslo,['0558'],['Norway'],[],[]
292,Kvadraturen Neighbourhood,Kvadraturen,[],Oslo,['0151'],['Norway'],[],[]
293,Nordstrand Church,Ekebergveien 238,[],Oslo,['1166'],['Norway'],[],[]
294,,,[],,[],[],[],[]
295,,,[],,[],[],[],[]
296,,,[],,[],[],[],[]
297,,,[],,[],[],[],[]
298,,,[],,[],[],[],[]
299,,,[],,[],[],[],[]
300,,,[],,[],[],[],[]
301,,,[],,[],[],[],[]
302,Toyen Marked,Sorliplass,[],Oslo,[],['Norway'],[],[]
303,Christiania Torv,Christiania,[],Oslo,[],['Norway'],[],[]
304,Bantjern,Melkeveien,[],Oslo,['0779'],['Norway'],[],[]
305,Tryvann Skiskole,Trollvannsveien 3,"['Oslo Skisenter, Grefsenkollen']",Oslo,['0490'],['Norway'],[],[]
306,Sphinx,Folketeaterpassasjen Storgata 21,[],Oslo,['0184'],['Norway'],[],[]
307,Skattkammeret,Louises gate 1,[],Oslo,['0168'],['Norway'],[],[]
308,Voldsloekka Ice-Skating Rink,Stavangergata,[],Oslo,['0467'],['Norway'],[],[]
309,Office For Contemporary Art Norway (Oca),Nedre gate 7,[],Oslo,['0551'],['Norway'],[],[]
310,Old Ankerveien Hiking Trail,Maridalen-Baerums Verk,[],Oslo,['0150'],['Norway'],[],[]
311,Furuset Public Pool,Trygve Lies Plass 3,[],Oslo,['1051'],['Norway'],[],[]
312,Holmlia Public Pool,Holmlia Senter vei 34,[],Oslo,['1255'],['Norway'],[],[]
313,Gallery Semmingsen,Tjuvholmen alle 6,[],Oslo,['0252'],['Norway'],[],[]
314,Grefsen Church,Glads vei 45,[],Oslo,['0489'],['Norway'],[],[]
315,Church Ruins in Maridalen,Hammeren,[],Oslo,['890'],['Norway'],[],[]
316,Picasso and Nesjar Mural: The Fishermen,Y Block Akersgata 44,[],Oslo,['0180'],['Norway'],[],[]
317,Maridalen Church,Maridalen,[],Oslo,['861'],['Norway'],[],[]
318,Grunerhallen Indoor Ice-Skating Rink,Seilduksgata 30,[],Oslo,['0553'],['Norway'],[],[]
319,Gerhardsen Gerner Oslo,Fru Kroghs Brygge 4,[],Oslo,['0252'],['Norway'],[],[]
320,Soft Galleri: Norske Tekstilkunstnere Gallery,Raadhusgata 20,[],Oslo,['0151'],['Norway'],[],[]
321,Galleriverkstedet Workshop and Gallery,Hegdehaugsveien 12,[],Oslo,['0167'],['Norway'],[],[]
322,Gallery Tm51,Thorvald Meyers gate 51,[],Oslo,['0555'],['Norway'],[],[]
323,Fotografiens Hus Photo Gallery,Raadhusgata 20,[],Oslo,['0151'],['Norway'],[],[]
324,Bjorvika Konferansesenter,Dronning Eufemias gate 6,[],Oslo,['0191'],['Norway'],[],[]
325,The Greek Orthodox Church,Thor Olsens gate 9,[],Oslo,['0177'],['Norway'],[],[]
326,USE-IT Oslo,Moellergata 3,['First floor'],Oslo,['0179'],['Norway'],[],[]
327,Galleri Sand,Niels Juels gate 43,[],Oslo,['0257'],['Norway'],[],[]
328,Sondre Nordstrand Horse Centre,Klemetsrudveien 50,[],Oslo,['1278'],['Norway'],[],[]
329,Galleri KHK,Herslebs gate 14,[],Oslo,['0561'],['Norway'],[],[]
330,Oslo Prosjektrom,Lakkegata 21,[],Oslo,['0187'],['Norway'],[],[]
331,Galleri Norske Grafikere,Tollbugata 24,[],Oslo,['0157'],['Norway'],"['\nTue - Fri\n', '\nSat - Sun\n']","['10:00 am - 5:00 pm', '12:00 pm - 4:00 pm']"
332,Tegnerforbundet Gallery,Raadhusgata 17,[],Oslo,['0158'],['Norway'],[],[]
333,Grorud Church,Pastor Blaauws vei 3,[],Oslo,['0962'],['Norway'],[],[]
334,Artwork Gallery,Tromsoegata 5 B,[],Oslo,['0565'],['Norway'],[],[]
335,Tonsen Church,Traverveien 16,[],Oslo,['0588'],['Norway'],[],[]
336,Norske Bjornetjenester,Ringeriksveien 495 B,[],Oslo,['3538'],['Norway'],[],[]
337,Varingskollen Alpine Center,Vargveien,[],Oslo,['1488'],['Norway'],[],[]
338,0047 Oslo,Schweigaards gate 34D,[],Oslo,['0191'],['Norway'],[],[]
339,Peder Lund,Tjuvholmen alle 27,[],Oslo,['0252'],['Norway'],['\nWed - Sat\n'],['12:00 pm - 5:00 pm']
340,Gallery ROM,Maridalsveien 3,[],Oslo,['0178'],['Norway'],[],[]
341,Bjornholt Gard,Nordmarka,[],Oslo,['890'],['Norway'],[],[]
342,Sogn Public Bath,Sognsveien 80,[],Oslo,['0855'],['Norway'],[],[]
343,Nordberg Church,Kringsjaagrenda 1,[],Oslo,['0861'],['Norway'],[],[]
344,Artgate,Bygdoey alle 66,[],Oslo,['0265'],['Norway'],[],[]
345,Kunsthall Oslo,Trelastgata 3,[],Oslo,['0191'],['Norway'],[],[]
346,Galleri Heer,Seilduksgata 4,[],Oslo,['0553'],['Norway'],[],[]
347,Furuset Church,Ulsholtveien 37,[],Oslo,['1053'],['Norway'],[],[]
348,Skoyen Church,Skoeyenveien 43,[],Oslo,['0375'],['Norway'],[],[]
349,Jegstad Farm,Vestby Nord,[],Oslo,['1540'],['Norway'],[],[]
350,Fiskevollbukta Beach,Oslo/Omegn,[],Oslo,['0102'],['Norway'],[],[]
351,Ullern Church,Holgerslystveien 22,[],Oslo,['0280'],['Norway'],[],[]
352,Lovisenberg Church,Lovisenberggata 4,[],Oslo,['0456'],['Norway'],[],[]
353,Arvoll Farm,Aarvollveien 35,[],Oslo,['0590'],['Norway'],[],[]
354,Galleri Kunst-Treff,Kongens gate 5,[],Oslo,['0153'],['Norway'],[],[]
355,Gallery LNM,Kongens gate 2,[],Oslo,['0153'],['Norway'],"['\nMon - Fri\n', '\nSat - Sun\n']","['11:00 am - 5:00 pm', '12:00 pm - 4:00 pm']"
356,Skjerven Farm,Maridalsveien 469,[],Oslo,['0890'],['Norway'],[],[]
357,Ulleval Hospital Museum,Kirkeveien 166,[],Oslo,['0450'],['Norway'],[],[]
358,Young Artists' Society,Lakkegata 55D,[],Oslo,['0187'],['Norway'],[],[]
359,Leirskallen Ski Centre,Leirskallen,[],Oslo,['1164'],['Norway'],[],[]
360,Fronsvollen,Nordmarka,[],Oslo,['890'],['Norway'],[],[]
361,Ringnes Olsenter,Thorvald Meyers gate 2,[],Oslo,['0555'],['Norway'],[],[]
362,RAM Gallery,Kongens Gate 3,[],Oslo,['153'],['Norway'],[],[]
363,Fotogalleriet,Moellergata 34,[],Oslo,['0179'],['Norway'],[],[]
364,Arthe Kunsthus,Tjuvholmen alle 6,[],Oslo,['0252'],['Norway'],[],[]
365,Galleri Gude,Elisenbergveien 4,[],Oslo,['265'],['Norway'],[],[]
366,Torshov Church,Aasengata 19,[],Oslo,['0480'],['Norway'],[],[]
367,Galleri MAP,Toeyengata 32,[],Oslo,['0578'],['Norway'],['\nTue - Sun\n'],['1:00 pm - 5:00 pm']
368,Galleri K,Bjoern Farmanns gate 6,[],Oslo,['0271'],['Norway'],[],[]
369,Gamlebyen Church,Ekebergveien 1,[],Oslo,['0192'],['Norway'],[],[]
370,The Gallery Galleruff African Excellence in Art,Pilestredet 47 A,[],Oslo,['0350'],['Norway'],[],[]
371,Iladalen Church,Soeren Jaabaeks gate 5,[],Oslo,['0460'],['Norway'],[],[]
372,The Norwegian Museum of Veterinary History,Ullevaalsveien 72,[],Oslo,['0454'],['Norway'],[],[]
373,Haugerud Church,Haugerudsenteret 47,[],Oslo,['0673'],['Norway'],[],[]
374,Galleri Louise,"Saeterhytten, Bygdoy Kongsgard",[],Oslo,['287'],['Norway'],[],[]
375,Tryvann Skiskole,Tryvann,[],Oslo,['784'],['Norway'],[],[]
376,Gallery Haaken,Lille Frogner alle 6,[],Oslo,['0263'],['Norway'],"['\nWed - Fri\n', '\nSat - Sun\n']","['12:00 pm - 5:00 pm', '12:00 pm - 4:00 pm']"
377,Galleri Ramfjord,Frydenlundgata 17,[],Oslo,['169'],['Norway'],"['\nThu - Fri\n', '\nSat - Sun\n']","['12:00 pm - 6:00 pm', '12:00 pm - 4:00 pm']"
378,Galleri Brandstrup,Tjuvholmen alle 5,[],Oslo,['0252'],['Norway'],[],[]
379,Galleri Dobloug,St. Olavs gate 13 A,[],Oslo,['0165'],['Norway'],[],[]
380,Ovre Lyse Farm,Sorkedalen,[],Oslo,['0758'],['Norway'],[],[]
381,Frogner Manor House,Frognerveien 67,[],Oslo,['0266'],['Norway'],['\nTue - Sun\n'],['11:00 am - 4:00 pm']
382,Galleri Dragedalen,Boegata 35,[],Oslo,['3800'],['Norway'],[],[]
383,Puppet Theater at Frogner (Dukketeatret pa Frogner),,[],Oslo,[],['Norway'],[],[]
384,Black Box Teater,Aker Brygge Stranden 3,[],Oslo,['0250'],['Norway'],[],[]
385,Viking Land (Vikinglandet),1433 Vinterbro,[],Oslo,[],['Norway'],[],[]
386,Finmark,,[],Oslo,[],['Norway'],[],[]
